LEMUR-2-GREENBERG       
1 42837U 17042N   26068.46200528  .00019778  00000+0  72539-3 0  9997
2 42837  97.3781 249.8007 0009157   4.0119 356.1192 15.27971352473146
STARLINK-32799          
1 62847U 25019U   26068.43311070  .00021581  00000+0  79187-3 0  9996
2 62847  42.9994  90.2596 0000976 259.5578 100.5163 15.27563236 62217
